ONEWEB-0578             
1 56067U 23043X   25098.37911025  .00000012  00000+0 -16220-5 0  9997
2 56067  87.9294 330.6798 0001818  87.4352 272.6990 13.21823794100790
ONEWEB-0579             
1 56068U 23043Y   25098.36965374  .00000047  00000+0  82860-4 0  9992
2 56068  87.9291 330.6699 0001907  73.7785 286.3558 13.21826204100808
ONEWEB-0581             
1 56069U 23043Z   25098.82764330  .00000132  00000+0  31276-3 0  9992
2 56069  87.9046 315.3836 0002209  84.3751 275.7632 13.16594105102710
ONEWEB-0609             
1 56070U 23043AA  25098.44006656  .00000091  00000+0  20867-3 0  9990
2 56070  87.9110 345.8465 0001685  78.6385 281.4935 13.15549393 99270
ONEWEB-0613             
1 56071U 23043AB  25098.43530885  .00000152  00000+0  36916-3 0  9996
2 56071  87.9114 345.8554 0001813  71.1740 288.9587 13.15549772 99276
ONEWEB-0630             
1 56072U 23043AC  25098.43055903  .00000072  00000+0  15624-3 0  9994
2 56072  87.9111 345.8366 0001761  69.7099 290.4220 13.15548868 99263
ONEWEB-0632             
1 56073U 23043AD  25098.42580709  .00000087  00000+0  19777-3 0  9990
2 56073  87.9111 345.8573 0002035  79.0667 281.0692 13.15549994 99264
ONEWEB-0633             
1 56074U 23043AE  25098.41946671 -.00000051  00000+0 -16929-3 0  9993
2 56074  87.9108 345.8289 0001616  65.6988 294.4311 13.15549310 99242
